start=new Date('2022-07-19T00:00:00.000Z').valueOf();
sats=[{"COUNTRY_CODE":"US","MEAN_MOTION":"15.06391957","ELEMENT_SET_NO":"999","APOAPSIS":"548.425","INCLINATION":"53.0563","FILE":"3517175","ARG_OF_PERICENTER":"82.0479","MEAN_ELEMENT_THEORY":"SGP4","OBJECT_ID":"2020-073BF","TLE_LINE2":"2 46723  53.0563  66.5159 0001713  82.0479 278.0704 15.06391957 97044","TLE_LINE1":"1 46723U 20073BF  22199.84846374 -.00000885  00000-0 -40521-4 0  9990","OBJECT_TYPE":"PAYLOAD","OBJECT_NAME":"STARLINK-1826","EPHEMERIS_TYPE":"0","SITE":"AFETR","PERIAPSIS":"546.052","PERIOD":"95.593","RA_OF_ASC_NODE":"66.5159","MEAN_MOTION_DDOT":"0.0000000000000","TIME_SYSTEM":"UTC","EPOCH":"2022-07-18T20:21:47.267136","MEAN_MOTION_DOT":"-0.00000885","SEMIMAJOR_AXIS":"6925.373","LAUNCH_DATE":"2020-10-18","ECCENTRICITY":"0.00017130","CENTER_NAME":"EARTH","CLASSIFICATION_TYPE":"U","GP_ID":"208405868","BSTAR":"-0.00004052100000","NORAD_CAT_ID":"46723","MEAN_ANOMALY":"278.0704","REV_AT_EPOCH":"9704","DECAY_DATE":null,"REF_FRAME":"TEME","RCS_SIZE":"LARGE"},{"TLE_LINE1":"1 46725U 20073BH  22199.85213843 -.00000515  00000-0 -15654-4 0  9991","OBJECT_TYPE":"PAYLOAD","OBJECT_NAME":"STARLINK-1828","TLE_LINE2":"2 46725  53.0550 106.4920 0001485  66.4292 293.6853 15.06394951 96962","FILE":"3517077","ARG_OF_PERICENTER":"66.4292","MEAN_ELEMENT_THEORY":"SGP4","OBJECT_ID":"2020-073BH","INCLINATION":"53.0550","APOAPSIS":"548.257","ELEMENT_SET_NO":"999","MEAN_MOTION":"15.06394951","COUNTRY_CODE":"US","RCS_SIZE":"LARGE","REF_FRAME":"TEME","DECAY_DATE":null,"REV_AT_EPOCH":"9696","MEAN_ANOMALY":"293.6853","NORAD_CAT_ID":"46725","BSTAR":"-0.00001565400000","GP_ID":"208383259","CLASSIFICATION_TYPE":"U","CENTER_NAME":"EARTH","LAUNCH_DATE":"2020-10-18","SEMIMAJOR_AXIS":"6925.364","ECCENTRICITY":"0.00014850","EPOCH":"2022-07-18T20:27:04.760352","TIME_SYSTEM":"UTC","MEAN_MOTION_DOT":"-0.00000515","MEAN_MOTION_DDOT":"0.0000000000000","PERIOD":"95.592","RA_OF_ASC_NODE":"106.4920","PERIAPSIS":"546.201","EPHEMERIS_TYPE":"0","SITE":"AFETR"},{"SITE":"AFETR","EPHEMERIS_TYPE":"0","PERIAPSIS":"542.110","RA_OF_ASC_NODE":"91.3762","PERIOD":"95.593","MEAN_MOTION_DDOT":"0.0000000000000","MEAN_MOTION_DOT":"-0.00000638","TIME_SYSTEM":"UTC","EPOCH":"2022-07-18T21:02:14.250048","LAUNCH_DATE":"2020-10-18","SEMIMAJOR_AXIS":"6925.371","ECCENTRICITY":"0.00074020","CENTER_NAME":"EARTH","GP_ID":"208406369","CLASSIFICATION_TYPE":"U","BSTAR":"-0.00002377300000","NORAD_CAT_ID":"46726","MEAN_ANOMALY":"305.8599","DECAY_DATE":null,"REV_AT_EPOCH":"9669","RCS_SIZE":"LARGE","REF_FRAME":"TEME","COUNTRY_CODE":"US","MEAN_MOTION":"15.06392549","ELEMENT_SET_NO":"999","APOAPSIS":"552.363","INCLINATION":"53.0548","OBJECT_ID":"2020-073BJ","MEAN_ELEMENT_THEORY":"SGP4","FILE":"3517175","ARG_OF_PERICENTER":"54.3078","TLE_LINE2":"2 46726  53.0548  91.3762 0007402  54.3078 305.8599 15.06392549 96693","OBJECT_TYPE":"PAYLOAD","OBJECT_NAME":"STARLINK-1829","TLE_LINE1":"1 46726U 20073BJ  22199.87655382 -.00000638  00000-0 -23773-4 0  9999"},{"RCS_SIZE":"LARGE","REF_FRAME":"TEME","DECAY_DATE":null,"REV_AT_EPOCH":"9705","BSTAR":"0.00016910000000","GP_ID":"208406607","CLASSIFICATION_TYPE":"U","MEAN_ANOMALY":"284.2890","NORAD_CAT_ID":"46727","MEAN_MOTION_DOT":"0.00002238","TIME_SYSTEM":"UTC","EPOCH":"2022-07-18T21:36:05.476896","MEAN_MOTION_DDOT":"0.0000000000000","CENTER_NAME":"EARTH","SEMIMAJOR_AXIS":"6925.341","LAUNCH_DATE":"2020-10-18","ECCENTRICITY":"0.00016780","SITE":"AFETR","EPHEMERIS_TYPE":"0","RA_OF_ASC_NODE":"66.2844","PERIOD":"95.592","PERIAPSIS":"546.044","OBJECT_TYPE":"PAYLOAD","OBJECT_NAME":"STARLINK-1830","TLE_LINE1":"1 46727U 20073BK  22199.90006339  .00002238  00000-0  16910-3 0  9996","TLE_LINE2":"2 46727  53.0557  66.2844 0001678  75.8285 284.2890 15.06402604 97052","APOAPSIS":"548.368","ELEMENT_SET_NO":"999","OBJECT_ID":"2020-073BK","MEAN_ELEMENT_THEORY":"SGP4","ARG_OF_PERICENTER":"75.8285","FILE":"3517175","INCLINATION":"53.0557","COUNTRY_CODE":"US","MEAN_MOTION":"15.06402604"},{"TLE_LINE2":"2 46740  53.0540 177.3535 0001619  64.3293 295.7863 15.06402375 96137","OBJECT_TYPE":"PAYLOAD","OBJECT_NAME":"STARLINK-1848","TLE_LINE1":"1 46740U 20074B   22199.66139400  .00001234  00000-0  10174-3 0  9992","MEAN_MOTION":"15.06402375","COUNTRY_CODE":"US","MEAN_ELEMENT_THEORY":"SGP4","OBJECT_ID":"2020-074B","ARG_OF_PERICENTER":"64.3293","FILE":"3517175","INCLINATION":"53.0540","APOAPSIS":"548.327","ELEMENT_SET_NO":"999","MEAN_ANOMALY":"295.7863","NORAD_CAT_ID":"46740","BSTAR":"0.00010174000000","GP_ID":"208405869","CLASSIFICATION_TYPE":"U","RCS_SIZE":"LARGE","REF_FRAME":"TEME","DECAY_DATE":null,"REV_AT_EPOCH":"9613","RA_OF_ASC_NODE":"177.3535","PERIOD":"95.592","PERIAPSIS":"546.085","SITE":"AFETR","EPHEMERIS_TYPE":"0","CENTER_NAME":"EARTH","LAUNCH_DATE":"2020-10-24","ECCENTRICITY":"0.00016190","SEMIMAJOR_AXIS":"6925.341","MEAN_MOTION_DOT":"0.00001234","TIME_SYSTEM":"UTC","EPOCH":"2022-07-18T15:52:24.441600","MEAN_MOTION_DDOT":"0.0000000000000"},{"DECAY_DATE":null,"REV_AT_EPOCH":"9616","REF_FRAME":"TEME","RCS_SIZE":"LARGE","CLASSIFICATION_TYPE":"U","GP_ID":"208376179","BSTAR":"-0.00008184500000","NORAD_CAT_ID":"46741","MEAN_ANOMALY":"294.7098","MEAN_MOTION_DDOT":"0.0000000000000","EPOCH":"2022-07-18T08:19:15.171168","TIME_SYSTEM":"UTC","MEAN_MOTION_DOT":"-0.00001500","LAUNCH_DATE":"2020-10-24","SEMIMAJOR_AXIS":"6925.366","ECCENTRICITY":"0.00017870","CENTER_NAME":"EARTH","EPHEMERIS_TYPE":"0","SITE":"AFETR","PERIAPSIS":"545.994","PERIOD":"95.593","RA_OF_ASC_NODE":"173.7625","TLE_LINE1":"1 46741U 20074C   22199.34670337 -.00001500  00000-0 -81845-4 0  9999","OBJECT_NAME":"STARLINK-1865","OBJECT_TYPE":"PAYLOAD","TLE_LINE2":"2 46741  53.0535 173.7625 0001787  65.4077 294.7098 15.06394171 96166","ELEMENT_SET_NO":"999","APOAPSIS":"548.469","INCLINATION":"53.0535","FILE":"3516915","ARG_OF_PERICENTER":"65.4077","OBJECT_ID":"2020-074C","MEAN_ELEMENT_THEORY":"SGP4","COUNTRY_CODE":"US","MEAN_MOTION":"15.06394171"},{"CENTER_NAME":"EARTH","ECCENTRICITY":"0.00015820","LAUNCH_DATE":"2020-10-24","SEMIMAJOR_AXIS":"6925.329","TIME_SYSTEM":"UTC","EPOCH":"2022-07-18T15:34:30.185472","MEAN_MOTION_DOT":"0.00004000","MEAN_MOTION_DDOT":"0.0000000000000","PERIOD":"95.592","RA_OF_ASC_NODE":"172.4122","PERIAPSIS":"546.098","EPHEMERIS_TYPE":"0","SITE":"AFETR","REF_FRAME":"TEME","RCS_SIZE":"LARGE","DECAY_DATE":null,"REV_AT_EPOCH":"9620","MEAN_ANOMALY":"289.1213","NORAD_CAT_ID":"46742","BSTAR":"0.00028721000000","CLASSIFICATION_TYPE":"U","GP_ID":"208406370","FILE":"3517175","ARG_OF_PERICENTER":"70.9947","OBJECT_ID":"2020-074D","MEAN_ELEMENT_THEORY":"SGP4","INCLINATION":"53.0544","APOAPSIS":"548.289","ELEMENT_SET_NO":"999","MEAN_MOTION":"15.06406445","COUNTRY_CODE":"US","TLE_LINE1":"1 46742U 20074D   22199.64896048  .00004000  00000-0  28721-3 0  9991","OBJECT_TYPE":"PAYLOAD","OBJECT_NAME":"STARLINK-1872","TLE_LINE2":"2 46742  53.0544 172.4122 0001582  70.9947 289.1213 15.06406445 96205"},{"OBJECT_TYPE":"PAYLOAD","OBJECT_NAME":"STARLINK-1892","TLE_LINE1":"1 46743U 20074E   22199.33933954  .00001021  00000-0  87416-4 0  9993","TLE_LINE2":"2 46743  53.0539 173.7803 0001405  80.1074 280.0073 15.06400187 96164","ELEMENT_SET_NO":"999","APOAPSIS":"548.186","INCLINATION":"53.0539","MEAN_ELEMENT_THEORY":"SGP4","OBJECT_ID":"2020-074E","FILE":"3516915","ARG_OF_PERICENTER":"80.1074","COUNTRY_CODE":"US","MEAN_MOTION":"15.06400187","REV_AT_EPOCH":"9616","DECAY_DATE":null,"RCS_SIZE":"LARGE","REF_FRAME":"TEME","GP_ID":"208374688","CLASSIFICATION_TYPE":"U","BSTAR":"0.00008741600000","NORAD_CAT_ID":"46743","MEAN_ANOMALY":"280.0073","MEAN_MOTION_DDOT":"0.0000000000000","MEAN_MOTION_DOT":"0.00001021","TIME_SYSTEM":"UTC","EPOCH":"2022-07-18T08:08:38.936256","LAUNCH_DATE":"2020-10-24","SEMIMAJOR_AXIS":"6925.348","ECCENTRICITY":"0.00014050","CENTER_NAME":"EARTH","SITE":"AFETR","EPHEMERIS_TYPE":"0","PERIAPSIS":"546.240","RA_OF_ASC_NODE":"173.7803","PERIOD":"95.592"},{"EPHEMERIS_TYPE":"0","SITE":"AFETR","PERIAPSIS":"545.991","PERIOD":"95.592","RA_OF_ASC_NODE":"171.9259","MEAN_MOTION_DDOT":"0.0000000000000","TIME_SYSTEM":"UTC","EPOCH":"2022-07-18T18:07:02.824320","MEAN_MOTION_DOT":"0.00000565","ECCENTRICITY":"0.00017520","LAUNCH_DATE":"2020-10-24","SEMIMAJOR_AXIS":"6925.339","CENTER_NAME":"EARTH","GP_ID":"208405370","CLASSIFICATION_TYPE":"U","BSTAR":"0.00005683100000","NORAD_CAT_ID":"46744","MEAN_ANOMALY":"306.6705","REV_AT_EPOCH":"9622","DECAY_DATE":null,"RCS_SIZE":"LARGE","REF_FRAME":"TEME","COUNTRY_CODE":"US","MEAN_MOTION":"15.06402986","ELEMENT_SET_NO":"999","APOAPSIS":"548.418","INCLINATION":"53.0556","ARG_OF_PERICENTER":"53.4445","FILE":"3517175","MEAN_ELEMENT_THEORY":"SGP4","OBJECT_ID":"2020-074F","TLE_LINE2":"2 46744  53.0556 171.9259 0001752  53.4445 306.6705 15.06402986 96222","TLE_LINE1":"1 46744U 20074F   22199.75489380  .00000565  00000-0  56831-4 0  9998","OBJECT_TYPE":"PAYLOAD","OBJECT_NAME":"STARLINK-1894"},{"MEAN_ANOMALY":"23.6320","NORAD_CAT_ID":"46745","BSTAR":"0.00155540000000","GP_ID":"208405620","CLASSIFICATION_TYPE":"U","REF_FRAME":"TEME","RCS_SIZE":"LARGE","REV_AT_EPOCH":"9712","DECAY_DATE":null,"RA_OF_ASC_NODE":"109.0867","PERIOD":"93.337","PERIAPSIS":"436.598","SITE":"AFETR","EPHEMERIS_TYPE":"0","CENTER_NAME":"EARTH","LAUNCH_DATE":"2020-10-24","ECCENTRICITY":"0.00018210","SEMIMAJOR_AXIS":"6815.974","MEAN_MOTION_DOT":"0.00069383","TIME_SYSTEM":"UTC","EPOCH":"2022-07-18T21:28:38.362944","MEAN_MOTION_DDOT":"0.0000000000000","TLE_LINE2":"2 46745  53.0514 109.0867 0001821 336.4601  23.6320 15.42804447 97126","OBJECT_TYPE":"PAYLOAD","OBJECT_NAME":"STARLINK-1898","TLE_LINE1":"1 46745U 20074G   22199.89488846  .00069383  00000-0  15554-2 0  9998","MEAN_MOTION":"15.42804447","COUNTRY_CODE":"US","MEAN_ELEMENT_THEORY":"SGP4","OBJECT_ID":"2020-074G","ARG_OF_PERICENTER":"336.4601","FILE":"3517175","INCLINATION":"53.0514","APOAPSIS":"439.080","ELEMENT_SET_NO":"999"}];
